LEMUR-2-ROUNDTRIPPER    
1 62711U 25009DG  26178.20738773  .00009485  00000+0  69119-3 0  9998
2 62711  97.7248 260.8730 0005501 107.0662 253.1166 15.03949624 79132
LEMUR-2-MYNAMEISJEFF    
1 62712U 25009DH  26178.20578378  .00008421  00000+0  61444-3 0  9994
2 62712  97.7291 261.2583 0003989 132.7796 227.3766 15.03945393 79131
LEMUR-2-LEIA-PHILIP     
1 63246U 25052AN  26178.16061103  .00001386  00000+0  12440-3 0  9998
2 63246  97.6819  69.9433 0003752 176.2961 183.8290 14.97338185 70160
LEMUR-2-LIA-MARTIN      
1 63248U 25052AQ  26177.96188642  .00004958  00000+0  42609-3 0  9993
2 63248  97.6876  70.2373 0003852 139.4162 220.7348 14.97873379 70140
LEMUR-2-DELOITTE-1      
1 63259U 25052BB  26178.20680045  .00003443  00000+0  29901-3 0  9995
2 63259  97.6924  70.8095 0003112  76.1211 284.0358 14.97673287 70199
LEMUR-2-EMERSONROSE     
1 63261U 25052BD  26178.17214698  .00004480  00000+0  37308-3 0  9993
2 63261  97.6878  71.3510 0002097  78.4064 281.7394 14.99148416 70232
LEMUR-2-MARACHE-FRAN    
1 63262U 25052BE  26178.20730656  .00004980  00000+0  40315-3 0  9992
2 63262  97.6922  71.7246 0004517 341.0693  19.0362 15.00186912 70265
LEMUR-2-THEFALCONER     
1 63264U 25052BG  26177.96738525  .00004010  00000+0  34940-3 0  9990
2 63264  97.6850  70.1820 0001518  16.8199 343.3073 14.97445247 70158
LEMUR-2-UNTITLED-SC     
1 63351U 25061A   26178.20409485  .00004053  00000+0  22909-3 0  9994
2 63351  97.5637 153.4931 0017383 226.7144 133.2638 15.13539995 69103
LEMUR-2-ESPERANZA       
1 63352U 25061B   26177.91618956  .00003436  00000+0  19435-3 0  9991
2 63352  97.5641 153.3028 0016964 226.9985 132.9825 15.13628579 69060
LEMUR-2-KREMPEL-BRO2    
1 63353U 25061C   26178.20471439  .00004085  00000+0  22741-3 0  9993
2 63353  97.5689 154.1356 0018083 218.0380 141.9575 15.14070098 69128
LEMUR-2-THERMORAPTOR    
1 63354U 25061D   26178.18625235  .00003522  00000+0  19616-3 0  9998
2 63354  97.5694 154.1948 0017812 216.7708 143.2303 15.14150531 69125
LEMUR-2-NEUROSPICY      
1 63355U 25061E   26177.89284059  .00004090  00000+0  22667-3 0  9992
2 63355  97.5620 153.5214 0015570 221.3544 138.6510 15.14263449 69089
LEMUR-2-TILLINFINITY    
1 63356U 25061F   26177.92436087  .00003779  00000+0  20620-3 0  9997
2 63356  97.5605 153.8503 0017097 208.5865 151.4431 15.14850004 69114
LEMUR-2-KREMPEL-BRO1    
1 63357U 25061G   26177.89908044  .00004013  00000+0  21990-3 0  9994
2 63357  97.5607 153.7385 0017711 210.3856 149.6351 15.14655024 69102
LEMUR-2-LANGER2SPACE    
1 63358U 25061H   26178.19183339  .00003702  00000+0  20502-3 0  9993
2 63358  97.5612 153.8396 0015496 218.1826 141.8309 15.14353771 69137
LEMUR-2-BALTO           
1 63395U 25052BH  26178.19203125  .00006346  00000+0  51211-3 0  9998
2 63395  97.6925  71.6849 0006554  31.1961 328.9651 15.00194391 70264
LEMUR-2-KRISH           
1 64561U 25135AK  26178.03878172  .00005189  00000+0  46426-3 0  9995
2 64561  97.7747 292.8475 0001093 102.9634 257.1709 14.96289471 55394
LEMUR-2-HUBBLE-4        
1 64565U 25135AP  26178.18762191  .00001752  00000+0  17154-3 0  9996
2 64565  97.7703 291.9738 0001167 223.9826 136.1301 14.93560949 55361
LEMUR-2-SEJONG-2        
1 64586U 25135BL  26178.13243387  .00005542  00000+0  48931-3 0  9993
2 64586  97.7695 293.0847 0002790 299.9448  60.1496 14.96774591 55436
LEMUR-2-HUBBLE-5        
1 64840U 25135BT  26178.13585576  .00001950  00000+0  18752-3 0  9992
2 64840  97.7726 292.5718 0004279 315.7815  44.3062 14.94165341 55397
LEMUR-2-KARENDARRELL    
1 64841U 25135BU  26178.12326470  .00009010  00000+0  72327-3 0  9991
2 64841  97.7685 294.3144 0010557 164.8413 195.3129 15.00252582 55504
LEMUR-2-LUCILLE-ROSE    
1 65403U 25135BV  26178.23013245  .00007445  00000+0  59807-3 0  9999
2 65403  97.7747 294.4512 0012374 246.3763 113.6161 15.00274508 50147
LEMUR-2-AFFIE-WAUWIE    
1 66295U 25248C   26177.67056753  .00022909  00000+0  84292-3 0  9990
2 66295  45.3937  63.5971 0007708 149.2516 210.8826 15.27531092 36047
LEMUR-2-DEANANDMAEVE    
1 66678U 25276N   26178.19078193  .00006800  00000+0  32012-3 0  9991
2 66678  97.4216 251.5005 0004760 337.6865  22.4162 15.19850842 31933
LEMUR-2-STAS-GORBUK     
1 66686U 25276W   26178.20765339  .00006309  00000+0  30043-3 0  9993
2 66686  97.4250 251.5712 0004047 337.8562  22.2497 15.19482151 31932
LEMUR-2-TEODOR          
1 66768U 25276DG  26178.18044639  .00006060  00000+0  27511-3 0  9994
2 66768  97.4156 251.7934 0002372 106.8130 253.3366 15.21154686 31967
LEMUR-2-LAILA           
1 66776U 25276DQ  26178.15290615  .00006718  00000+0  30265-3 0  9997
2 66776  97.4179 251.8933 0002672 121.3399 238.8099 15.21377528 31966
LEMUR-2-CELIJO-SB-PK    
1 66781U 25276DW  26178.17604961  .00006737  00000+0  54448-3 0  9998
2 66781  97.5232 248.6253 0008116 108.4923 251.7184 15.00092781 24121
LEMUR-2-FINNIAN         
1 66782U 25276DX  26178.01702183  .00004265  00000+0  34317-3 0  9994
2 66782  97.5321 248.6986 0008584  60.9058 299.3024 15.00465687 21479
